<?xml version="1.0" encoding="UTF-8"?>
<kml xmlns="http://www.opengis.net/kml/2.2" xmlns:gx="http://www.google.com/kml/ext/2.2" xmlns:kml="http://www.opengis.net/kml/2.2" xmlns:atom="http://www.w3.org/2005/Atom">
<Document>
	<name>border.kml</name>
	<StyleMap id="m_ylw-pushpin">
		<Pair>
			<key>normal</key>
			<styleUrl>#s_ylw-pushpin</styleUrl>
		</Pair>
		<Pair>
			<key>highlight</key>
			<styleUrl>#s_ylw-pushpin_hl</styleUrl>
		</Pair>
	</StyleMap>
	<Style id="s_ylw-pushpin">
		<IconStyle>
			<scale>1.1</scale>
			<Icon>
				<href>http://maps.google.com/mapfiles/kml/pushpin/ylw-pushpin.png</href>
			</Icon>
			<hotSpot x="20" y="2" xunits="pixels" yunits="pixels"/>
		</IconStyle>
	</Style>
	<Style id="s_ylw-pushpin_hl">
		<IconStyle>
			<scale>1.3</scale>
			<Icon>
				<href>http://maps.google.com/mapfiles/kml/pushpin/ylw-pushpin.png</href>
			</Icon>
			<hotSpot x="20" y="2" xunits="pixels" yunits="pixels"/>
		</IconStyle>
	</Style>
	<Placemark>
		<name>border2</name>
		<styleUrl>#m_ylw-pushpin</styleUrl>
		<Polygon>
			<tessellate>1</tessellate>
			<outerBoundaryIs>
				<LinearRing>
					<coordinates>
						101.6333915787446,2.704216586523367,0 101.6333869120872,2.704177823630892,0 101.6333882744505,2.704145517080527,0 101.6333885467894,2.70413905891603,0 101.6333899078046,2.70410678409889,0 101.6333920831082,2.704055199022597,0 101.6333939841536,2.704010117288685,0 101.6333896000662,2.703965126569476,0 101.6333917716126,2.703913726224938,0 101.6333936693825,2.703868805748622,0 101.6333950236015,2.703836750964638,0 101.6333966471975,2.70379831969348,0 101.6333979989748,2.70376632228908,0 101.6333996196494,2.703727959664812,0 101.6333949774233,2.703689673765345,0 101.633396327986,2.703657764568394,0 101.6333976774493,2.703625881153968,0 101.6333935824044,2.703574960964993,0 101.6333889523778,2.703536823950677,0 101.6333908425468,2.703492331655672,0 101.6333862186951,2.703454274873913,0 101.6333875687026,2.703422556283507,0 101.6333891872573,2.703384527900819,0 101.6333910735744,2.703340208025274,0 101.6333929577434,2.703295938255757,0 101.6333951084529,2.703245405498512,0 101.6333969880312,2.703201242811469,0 101.6333991335038,2.703150832210714,0 101.6334010085082,2.703106776215608,0 101.6334026139593,2.703069053486834,0 101.6334042178507,2.703031367139829,0 101.6334058201808,2.702993717216148,0 101.6334076875983,2.702949838201848,0 101.6334092865586,2.702912266887624,0 101.6334119480439,2.702849728476031,0 101.6334132771731,2.702818496911399,0 101.6334154015462,2.702768578516247,0 101.633417788187,2.702712496813527,0 101.6334188478032,2.702687597579323,0 101.6334201713624,2.702656495956945,0 101.6334214938542,2.702625419236862,0 101.6334166411475,2.702594406247703,0 101.6334179639781,2.702563379213911,0 101.6334203423896,2.702507593045802,0 101.6334154977685,2.702476674190301,0 101.6334165548544,2.702451925856222,0 101.6334178752556,2.702421012667305,0 101.6334138295783,2.702371641613172,0 101.6334151496776,2.702340792485594,0 101.6334162049937,2.702316130895861,0 101.6334183135945,2.702266854849336,0 101.6334196300953,2.702236089214103,0 101.6334212085024,2.702199202796742,0 101.6334166459343,2.702162390199677,0 101.6334184871419,2.702119441521669,0 101.6334198010264,2.702088793161987,0 101.6334211138597,2.702058169153216,0 101.6334165593416,2.702021491015191,0 101.6334186595691,2.701972589780382,0 101.6334199708481,2.701942058022751,0 101.6334218048799,2.701899354221274,0 101.6334169975459,2.701868918989743,0 101.6334183076922,2.701838469415809,0 101.6334198784878,2.701801961771983,0 101.6334331428141,2.701777565739162,0 101.6334402915463,2.701753223561441,0 101.6334588709593,2.701747034794178,0 101.6334771902085,2.701746919587396,0 101.6335199356681,2.701746650767324,0 101.6335568253312,2.701740347904707,0 101.6336178850887,2.701739963907493,0 101.633691156873,2.701739503107211,0 101.6337583226565,2.701739080704049,0 101.6338135066053,2.701732663662413,0 101.6338623504288,2.701732356483498,0 101.633905311847,2.701726017271523,0 101.6339541517261,2.701725710116075,0 101.6339907814655,2.701725479749518,0 101.6340274114673,2.701725249380417,0 101.6340579362609,2.70172505740679,0 101.6340884610389,2.701724865432642,0 101.6341067760125,2.701724750247184,0 101.6341495108343,2.701724481480979,0 101.6341800355664,2.701724289505258,0 101.6341983505128,2.701724174318855,0 101.6342227703377,2.701724020737287,0 101.63425309953,2.70172989900544,0 101.6342714159043,2.701729783808646,0 101.6342897322733,2.701729668611665,0 101.6343202593532,2.701729476617481,0 101.6343385757087,2.701729361420001,0 101.6343752081188,2.701729131026278,0 101.6343879736508,2.701710846675226,0 101.6343887126294,2.70168658334557,0 101.6343901891721,2.701638102790671,0 101.6343903736088,2.701632046996362,0 101.634391111059,2.701607833476637,0 101.6343925845493,2.701559452398965,0 101.6343938723179,2.701517168994411,0 101.6343946075429,2.701493027996673,0 101.6343831727124,2.701468978749975,0 101.6343839108404,2.701444868164396,0 101.6343848328393,2.70141475136966,0 101.6343857541094,2.70138465820141,0 101.6343927501966,2.701354550611482,0 101.6343933007342,2.701336520328702,0 101.6343940343781,2.701312493161093,0 101.6344012035929,2.701276442634243,0 101.6344022992779,2.701240464254991,0 101.6344096394016,2.70119849419533,0 101.6344164278014,2.701174515677879,0 101.6344230312508,2.70115653217229,0 101.634424114912,2.70112066672313,0 101.6344312519319,2.70108479688028,0 101.634438202694,2.701054924891636,0 101.6344390986512,2.701025114254886,0 101.6344405307084,2.700977465927187,0 101.6344472897324,2.700953626022664,0 101.6344487152942,2.700906067278102,0 101.6344494274064,2.700882310048183,0 101.6344503169075,2.700852634677426,0 101.6344512057135,2.700822982322637,0 101.6344526263474,2.700775586767727,0 101.634459717327,2.700740041121322,0 101.6344781484237,2.700728098916688,0 101.6345022516455,2.700727947422035,0 101.634532209446,2.700733671934251,0 101.6345623410133,2.700733482544531,0 101.6346043591594,2.700739131988391,0 101.6346463841259,2.700744782306067,0 101.6346823880269,2.700750471566588,0 101.6347064987121,2.700750320009378,0 101.6347364817468,2.700756047854984,0 101.6347724979907,2.700761738695383,0 101.6348024911177,2.700767468496287,0 101.6348385181161,2.700773161108713,0 101.6348744063381,2.700784776629578,0 101.6349044166291,2.700790509831136,0 101.6349225094154,2.70079039608866,0 101.6349647261377,2.700790130684846,0 101.6349826828228,2.700795940581452,0 101.6350068084952,2.700795788906953,0 101.6350309341614,2.700795637230985,0 101.6350610913059,2.700795447633508,0 101.6350912482998,2.700795258034622,0 101.6351153739446,2.700795106353501,0 101.6351394995834,2.700794954670905,0 101.6351636252165,2.700794802986836,0 101.6351877508439,2.700794651301292,0 101.6352179079407,2.700794461691842,0 101.6352360020817,2.700794347925775,0 101.6352601276924,2.700794196235805,0 101.6352902847687,2.700794006620818,0 101.6353145205353,2.70078793145403,0 101.635356843803,2.700781743482326,0 101.6353990570459,2.700781478053145,0 101.6354292092323,2.700781288458833,0 101.6354653919307,2.700781060942046,0 101.6355016701494,2.700774911715072,0 101.6355378500004,2.700774684209752,0 101.6355680902702,2.700768574048975,0 101.6356102967068,2.700768308640166,0 101.6356344147052,2.700768156975657,0 101.6356586159515,2.70076208570987,0 101.6356827320581,2.700761934054418,0 101.6357068481607,2.700761782397446,0 101.6357369933543,2.700761592823647,0 101.6357671384012,2.700761403248355,0 101.6357912544913,2.700761251586053,0 101.635833457711,2.700760986172913,0 101.635839486661,2.700760948256875,0 101.6358816898693,2.700760682838401,0 101.6359118348914,2.700760493251674,0 101.635935950962,2.700760341580219,0 101.6359781541493,2.700760076151057,0 101.6360263862019,2.700759772798662,0 101.6360565312736,2.700759583200033,0 101.6360806473282,2.700759431519408,0 101.6361107923931,2.700759241916474,0 101.6361470115625,2.700753095779654,0 101.6361771542651,2.700752906186382,0 101.6362133654127,2.70074676119665,0 101.6362435057545,2.700746571612985,0 101.6362736460934,2.700746382026899,0 101.6363098144967,2.700746154520404,0 101.6363459828965,2.700745927010422,0 101.6363761232273,2.700745737416105,0 101.6364062635561,2.700745547819362,0 101.6364424319482,2.700745320300074,0 101.6364786003378,2.70074509277729,0 101.6365207967898,2.700744827329624,0 101.6365629932394,2.700744561877199,0 101.6365931335594,2.700744372265407,0 101.6366172458148,2.70074422057422,0 101.6366654703244,2.700743917187181,0 101.636701638706,2.700743689642811,0 101.6367438351508,2.700743424169948,0 101.6367980877229,2.700743082840678,0 101.6368402841687,2.700742817356892,0 101.6368824929699,2.70074846901472,0 101.6369186641794,2.700748241431692,0 101.6369608639257,2.700747975913732,0 101.6370030636746,2.700747710391001,0 101.6370452884979,2.700753363033469,0 101.6370874915497,2.700753097480744,0 101.6371296946055,2.700752831923265,0 101.6371779266747,2.70075252842317,0 101.6372141007309,2.700752300794018,0 101.6372502747909,2.700752073161363,0 101.6372864488553,2.700751845525203,0 101.637322669664,2.700757536667752,0 101.6373588465636,2.700757309007173,0 101.637401052953,2.700757043398748,0 101.6374432593499,2.700756777785564,0 101.6374854657547,2.700756512167619,0 101.6375276721679,2.70075624654491,0 101.63756987859,2.700755980917433,0 101.6376061244175,2.70076167280391,0 101.6376363454844,2.700767403709604,0 101.6376725280916,2.700767175984135,0 101.6376967258107,2.700772945543028,0 101.6377208494415,2.700772793711068,0 101.6377570348945,2.700772565960234,0 101.6377993352673,2.700778222500832,0 101.6378416422663,2.700783880100569,0 101.6378780137293,2.700795501366388,0 101.6379022370044,2.700801275564614,0 101.6379384366455,2.700801047710573,0 101.6379747340408,2.700806746654234,0 101.6379988690338,2.700806594735953,0 101.6380350715319,2.700806366855711,0 101.6380592065366,2.700806214933666,0 101.6380893752993,2.700806025028992,0 101.6381195440698,2.700805835121965,0 101.6381436790917,2.700805683194647,0 101.6381738478766,2.700805493283378,0 101.6381979829103,2.700805341352665,0 101.6382221179493,2.700805189420444,0 101.6382522867559,2.700804999503041,0 101.6382764218073,2.700804847567421,0 101.6383126243951,2.700804619661155,0 101.638354860764,2.700804353766213,0 101.6384091646934,2.700804011894476,0 101.6384453673302,2.700803783975728,0 101.6384755361344,2.700803594041279,0 101.6384996712414,2.700803442091657,0 101.638535873914,2.700803214164381,0 101.6385720766013,2.700802986233689,0 101.6386143131596,2.700802720309793,0 101.6386444820217,2.700802530362064,0 101.6386805318268,2.700796375951549,0 101.6387167317464,2.700796148024024,0 101.6387465822651,2.700784107804238,0 101.6387827765561,2.700783879904026,0 101.6388188071642,2.70077772837362,0 101.6388429348265,2.700777576447081,0 101.6388670624965,2.70077742451899,0 101.6388910208386,2.7007713497434,0 101.6389151466387,2.700771197823364,0 101.6389573667375,2.700770931959991,0 101.638975461174,2.700770818016446,0 101.6389995870024,2.700770666090946,0 101.6390418071513,2.700770400218003,0 101.6390779959315,2.700770172322717,0 101.6391141847309,2.70076994442391,0 101.6391322792085,2.700769830472742,0 101.6391746909311,2.700775487299977,0 101.6391988187159,2.700775335350486,0 101.6392354029002,2.70078695521875,0 101.6392595344796,2.700786803243226,0 101.6392896990373,2.700786613271204,0 101.639302167832,2.700798388899424,0 101.639309212005,2.700827996058706,0 101.6393104255311,2.700863600792729,0 101.6393118427576,2.70090518186008,0 101.6393124506192,2.700923016296022,0 101.6393138700837,2.700964662699967,0 101.6393146819077,2.700988481121105,0 101.6393152911107,2.701006354716296,0 101.6393169170598,2.701054058729493,0 101.6393179343225,2.701083904229467,0 101.6393189523846,2.701113773067413,0 101.6393199712534,2.701143665451085,0 101.6393209909235,2.701173581228162,0 101.6393280775668,2.701203482417161,0 101.6393293060654,2.701239440656856,0 101.6393305357297,2.701275432841323,0 101.6393319718143,2.701317466720343,0 101.639332793149,2.701341506895969,0 101.6393336150038,2.701365562219229,0 101.6393348487607,2.701401673592101,0 101.6393417556347,2.701425728555297,0 101.6393425812298,2.7014498369068,0 101.6393434073516,2.701473960561686,0 101.6393444407417,2.701504136567849,0 101.6393452680434,2.701528294504143,0 101.6393460958673,2.701552467609144,0 101.6393475458291,2.701594807442003,0 101.6393494124346,2.701649313191022,0 101.6393441394508,2.701673601311949,0 101.6393449685082,2.701697866384107,0 101.6393457980931,2.701722146818308,0 101.6393407259472,2.701752557408375,0 101.6393417620766,2.701782953622425,0 101.639343214043,2.701825548752297,0 101.6393381341942,2.70185604130746,0 101.6393389633389,2.701880421976248,0 101.6393338780414,2.701910958067872,0 101.6393347064331,2.701935373582276,0 101.6393300297135,2.701978176532526,0 101.6393251410227,2.702014908233065,0 101.6393259677658,2.702039389727457,0 101.639327208874,2.702076141235404,0 101.6393221061294,2.702106832873689,0 101.6393165866425,2.702125275014822,0 101.6393120943205,2.702174432731722,0 101.6393069789255,2.702205202615097,0 101.639308007781,2.702235958343069,0 101.6393092434961,2.70227289758347,0 101.6393102741663,2.702303707283066,0 101.6393047379209,2.702322243598492,0 101.6393059734648,2.702359265424477,0 101.6393070039934,2.702390144036573,0 101.6393078290118,2.70241486467743,0 101.6393088610302,2.702445787704097,0 101.6393220210876,2.702470466365331,0 101.6393466887864,2.70247031125438,0 101.6393592332188,2.702476425202323,0 101.6393962377507,2.702476192520052,0 101.639414739953,2.702476076179816,0 101.6394519625276,2.702482035952307,0 101.6394889700752,2.702481803255837,0 101.6395259776464,2.702481570560571,0 101.6395506493738,2.702481415431062,0 101.6395940543792,2.702487337329652,0 101.6396125596032,2.702487220975468,0 101.6396559730766,2.702493143818248,0 101.6396991556834,2.70249287230655,0 101.6397176622781,2.702492755946459,0 101.6397361691677,2.702492639584862,0 101.6397670138057,2.702492445650758,0 101.6397916895868,2.702492290503723,0 101.6398163653796,2.702492135357232,0 101.6398410411841,2.702491980211284,0 101.6398657170005,2.70249182506588,0 101.63990889978,2.702491553562271,0 101.6399397445215,2.702491359632914,0 101.6399767584674,2.702491126917347,0 101.6400196778926,2.702484661248943,0 101.6400505202377,2.702484467336704,0 101.6400751941858,2.702484312207149,0 101.6400998681465,2.70248415707812,0 101.6401245421201,2.702484001949619,0 101.6401553845332,2.702483808040191,0 101.6401733386784,2.702471306464388,0 101.6402038980812,2.702464921469703,0 101.6402280061612,2.702452387138669,0 101.6402333309435,2.702433786934102,0 101.6402380921832,2.702402832232207,0 101.6402422877051,2.702359552637787,0 101.6402526337079,2.702316282655231,0 101.6402512270747,2.702285460373008,0 101.640256253607,2.702260781559039,0 101.6402551278724,2.702236157145821,0 101.6402598680487,2.702205360033806,0 101.6402584605729,2.702174626080801,0 101.6402570542234,2.70214391658819,0 101.6402615065965,2.702107058827988,0 101.6402606626715,2.702088662450084,0 101.6402584141825,2.702039648315508,0 101.6402570103359,2.702009046114171,0 101.6402547665126,2.701960133137989,0 101.64025977054,2.701935661386627,0 101.6402639291451,2.701892902090751,0 101.6402619647915,2.701850228746137,0 101.6402669594183,2.701825826785317,0 101.640266117306,2.701807564308873,0 101.640264714679,2.701777146118565,0 101.6402635933805,2.701752828888563,0 101.6402683006643,2.701722415634466,0 101.6402668987416,2.701692064769853,0 101.6402652179089,2.701655675485269,0 101.6402632589615,2.70161326490667,0 101.6402618610494,2.701583000405787,0 101.6402607435163,2.701558805958935,0 101.6402657196436,2.701534588441112,0 101.6402646016053,2.70151042455211,0 101.6402623676608,2.7014621426053,0 101.6402612517489,2.701438024427541,0 101.6402595792095,2.701401875716936,0 101.6402576299208,2.701359745373843,0 101.6402623158157,2.701329642403864,0 101.6402609235006,2.701299601459788,0 101.6402716760006,2.701269507594973,0 101.6402821405393,2.701233441541592,0 101.6402868088129,2.701203437976853,0 101.6402914734206,2.70117345789236,0 101.6403021965073,2.701143463263819,0 101.6403071327237,2.701119507358168,0 101.6403117842484,2.701089593138859,0 101.6403103769418,2.701059740611366,0 101.6403216409087,2.701041764055153,0 101.6403205125941,2.701017910084626,0 101.6403191031999,2.70098811363133,0 101.6403240240868,2.700964255201066,0 101.6403220507326,2.700922605650216,0 101.64032064252,2.700892883812337,0 101.6403249932153,2.700857210327325,0 101.6403356588069,2.70082746356177,0 101.6403465989966,2.70080366778933,0 101.6403764879205,2.70079755012577,0 101.6404003382805,2.700791471252253,0 101.6404365422742,2.700791243142321,0 101.6404667121042,2.700791053049212,0 101.6404968819553,2.700790862953663,0 101.6405270521103,2.700790672853892,0 101.6405632559296,2.700790444733435,0 101.6406054939939,2.700790178586971,0 101.6406299353503,2.700795953191722,0 101.6406664503009,2.700801652467745,0 101.6406905901271,2.700801500356924,0 101.6407150420023,2.700807276572574,0 101.6407391837453,2.700807124448002,0 101.6407696774977,2.700812863698618,0 101.6407998570097,2.700812673525463,0 101.640817964841,2.700812559419703,0 101.6408481443902,2.700812369242694,0 101.6408783239629,2.700812179063277,0 101.6409085035593,2.700811988881445,0 101.6409390130619,2.700817728779664,0 101.6409634902608,2.700823507620774,0 101.6409876378233,2.700823355448585,0 101.6410178222277,2.700823165231641,0 101.6410423075674,2.700828945129318,0 101.6410849103689,2.700834611603435,0 101.6411211373629,2.700834383302338,0 101.6411456346754,2.700840164805016,0 101.6411942911039,2.700845795165016,0 101.6412244851256,2.700845604879196,0 101.6412546794555,2.700845414589238,0 101.64129091229,2.700845186240664,0 101.6413271454445,2.700844957886911,0 101.6413452617533,2.700844843710539,0 101.6413875337428,2.700844577292136,0 101.6414116891483,2.700844425051222,0 101.6414365819499,2.700856144611635,0 101.6414505109133,2.700885764579434,0 101.6414580353182,2.700909500004791,0 101.6414716103443,2.70093321238479,0 101.641473098309,2.700957015675051,0 101.6414806371813,2.700980795856841,0 101.6414828751548,2.701016551357561,0 101.6414839949329,2.701034441682554,0 101.6414851152411,2.701052340428518,0 101.6414881053217,2.701100111602448,0 101.6414884793494,2.70110608725208,0 101.6414899760456,2.701129999146104,0 101.6414918482417,2.701159910080103,0 101.6414940968382,2.701195834360532,0 101.6414955970803,2.701219802590924,0 101.6414978492292,2.701255783308136,0 101.6414997276573,2.70128579325484,0 101.6414951553074,2.70130985647052,0 101.641491331189,2.701345960527298,0 101.6414932092878,2.701376041371342,0 101.6414947128419,2.701400123170903,0 101.6414908840203,2.701436312629315,0 101.6414927641952,2.701466464792399,0 101.6414942694081,2.701490603635713,0 101.6414904358718,2.701526878801162,0 101.6414919415509,2.701551055790506,0 101.6414888565666,2.701599493925372,0 101.6414842623394,2.70162375521059,0 101.641474689403,2.701666258974024,0 101.6414758169108,2.701684456328294,0 101.6414715889135,2.701714842960316,0 101.6414612473499,2.701745292009994,0 101.641457010535,2.701775726747232,0 101.6414523954147,2.701800099612977,0 101.6414477776574,2.701824487882376,0 101.6414435311581,2.701854985378568,0 101.6414392812992,2.701885507062796,0 101.6414346539863,2.70190994957071,0 101.6414300240248,2.701934407548854,0 101.6414257644392,2.701964992263008,0 101.6414276318808,2.701995562704842,0 101.6414229945587,2.702020075143266,0 101.6414187271755,2.702050727941118,0 101.6414148297334,2.702087535733462,0 101.6414113015531,2.702130516171801,0 101.6414139140117,2.702173505875279,0 101.6414154081599,2.702198092933956,0 101.6414111282303,2.702228887471158,0 101.6414137439606,2.702271986890827,0 101.6414090853397,2.702296675462262,0 101.6414105803576,2.702321341055833,0 101.6414117022505,2.702339850579048,0 101.6414074130224,2.702370758231341,0 101.6414031203778,2.70240169056453,0 101.6414049894842,2.702432608852353,0 101.641401814065,2.702482168306211,0 101.6414048076661,2.702531752392599,0 101.64140743023,2.70257519056112,0 101.6414089301656,2.702600034237817,0 101.6414100557516,2.702618677443482,0 101.6414057501867,2.702649808219449,0 101.6414080018329,2.702687151437903,0 101.6414098798705,2.702718298257376,0 101.64140594462,2.702755746294093,0 101.6414085754887,2.702799435891601,0 101.6414089515701,2.702805681275052,0 101.6414068921268,2.702874485621859,0 101.6414099043327,2.702924573281761,0 101.6414055821111,2.702955949784573,0 101.6414070888962,2.702981037939402,0 101.6414097281224,2.703024981157017,0 101.6414119927002,2.703062686239376,0 101.6414072860154,2.703087882214666,0 101.6414037081703,2.703131985032995,0 101.6414059729723,2.703169793567266,0 101.6414078619933,2.703201328666252,0 101.6414097525482,2.703232889226737,0 101.6414112660989,2.703258156047305,0 101.6414131594196,2.703289762516772,0 101.6414150542765,2.703321394487129,0 101.6414177096703,2.703365722302832,0 101.6414199881341,2.70340375761111,0 101.6414215083389,2.703429134881427,0 101.6414237905093,2.703467231710846,0 101.641419443954,2.703499046647704,0 101.641421346484,2.703530848036742,0 101.641417756484,2.70357545264162,0 101.6414196602088,2.703607316082045,0 101.6414211843062,2.703632825434904,0 101.6414175892973,2.703677545956745,0 101.6414191140937,2.703703100826733,0 101.6414210214998,2.703735067922786,0 101.6414225485465,2.703760660291621,0 101.6414244587557,2.703792674096157,0 101.6414256056325,2.703811894898862,0 101.641427901076,2.703850364663112,0 101.6414298156726,2.703882451577664,0 101.6414317318319,2.703914564532684,0 101.6414395513958,2.70394023438034,0 101.6414410885128,2.70396596039653,0 101.6414489159474,2.703991663759021,0 101.6414638128824,2.704030230488225,0 101.6414661334794,2.704068913938257,0 101.6414743673983,2.704101139681991,0 101.6414774717463,2.704152818723508,0 101.6414790254603,2.704178683734604,0 101.6414813579364,2.704217512783686,0 101.6414833034179,2.704249899313611,0 101.6414655368644,2.704269462697531,0 101.6414276676647,2.70426970003587,0 101.6413897988024,2.704269937378908,0 101.6413456182697,2.704270214288941,0 101.6413077494974,2.70427045164617,0 101.6412572576678,2.704270768133905,0 101.6411941428345,2.704271163760899,0 101.6411180458948,2.704265155804814,0 101.6410419615637,2.704259148867697,0 101.6409725471093,2.704259584063477,0 101.6409094433854,2.704259979713706,0 101.640846002312,2.704253894456252,0 101.6407829039565,2.704254290114197,0 101.6407257881775,2.704248166495695,0 101.6406623728058,2.704242083466029,0 101.6405989681902,2.704236001259687,0 101.6405232690358,2.704236476033587,0 101.6404661885631,2.704230355467212,0 101.6403775818364,2.704224433737633,0 101.6403079095787,2.704218394137576,0 101.6402382488295,2.704212355749088,0 101.6401620130292,2.70419988623161,0 101.6400794982855,2.704187460580863,0 101.6400098849951,2.704181427092178,0 101.6399402834828,2.704175394810582,0 101.6399150713987,2.704175553023194,0 101.6398391807267,2.70416956111028,0 101.6397633025737,2.704163570403445,0 101.6396939808636,2.704164005484379,0 101.6396307238559,2.704157936673402,0 101.6395740108438,2.704158292653518,0 101.6395235993909,2.704158609091709,0 101.6394731879823,2.704158925541041,0 101.6394164752731,2.704159281559395,0 101.6393597624704,2.704159637592791,0 101.6393156526803,2.70415991451659,0 101.6392589399705,2.704160270575084,0 101.6391959259897,2.704160666211695,0 101.6391581176306,2.704160903602038,0 101.6390952974038,2.704167763877248,0 101.639038769454,2.704174585711147,0 101.6389883501927,2.704174902316204,0 101.6389442332947,2.704175179355331,0 101.6389064188953,2.704175416823914,0 101.6388686045152,2.70417565429883,0 101.6388372652327,2.704182319241579,0 101.6388120536071,2.704182477577377,0 101.6387805390129,2.704182675501562,0 101.6387428865152,2.70418938096621,0 101.6386987626971,2.704189658095129,0 101.638654954237,2.704202874586718,0 101.6385920625009,2.704209741770622,0 101.6385480769891,2.704216491464325,0 101.6385039386976,2.704216768718473,0 101.6384724114862,2.70421696676176,0 101.6384408842118,2.70421716481001,0 101.6384094946741,2.704223836264328,0 101.6383842708086,2.704223994722077,0 101.6383590469498,2.704224153182732,0 101.6383276481818,2.704230825762786,0 101.638302422275,2.704230984242282,0 101.6382771963744,2.704231142724685,0 101.6382519704799,2.704231301209992,0 101.6382205604265,2.704237975127377,0 101.6381827185131,2.704238212884804,0 101.6381448766127,2.704238450648796,0 101.6381197627573,2.704245085882035,0 101.6380819177833,2.704245323675591,0 101.6380629953008,2.704245442574846,0 101.6380188428531,2.704245720012839,0 101.63799361289,2.704245878552865,0 101.6379557679546,2.704246116368403,0 101.6379304394039,2.704239798102204,0 101.6379051149964,2.70423348067806,0 101.6378797003093,2.704220690824191,0 101.6378605054876,2.704201394844638,0 101.6378537402311,2.704169097432545,0 101.6378470721554,2.704143286336176,0 101.6378404084382,2.704117492294349,0 101.6378336585625,2.704085263389518,0 101.6378268242887,2.704046615576468,0 101.6378262851601,2.704007966051659,0 101.6378259260346,2.703982220669793,0 101.637819104452,2.703943673598401,0 101.6378123780969,2.703911586424674,0 101.6378117584757,2.703866652936419,0 101.6378112279358,2.703828179271885,0 101.6378108745306,2.70380255098627,0 101.6378104330982,2.703770539039678,0 101.6378099920269,2.703738553198024,0 101.6378097275565,2.703719374144558,0 101.6378092870589,2.703687429753908,0 101.6378088469213,2.703655511385192,0 101.6378085830105,2.703636372775838,0 101.6378081434447,2.703604495726126,0 101.6378078798775,2.703585381941522,0 101.6378138697238,2.703566238142122,0 101.6378133401923,2.703528057047742,0 101.6378192356784,2.703502584289564,0 101.6378187925532,2.703470815600268,0 101.6378245039383,2.703432687938411,0 101.6378239701522,2.703394636510978,0 101.6378297628359,2.703362916008292,0 101.6378355508387,2.703331221045126,0 101.637835102098,2.703299590915512,0 101.6378408832751,2.703267947160801,0 101.6378404327472,2.703236368098947,0 101.6378462976187,2.703211084085417,0 101.6378519768227,2.703173208140945,0 101.6378578332457,2.703147964880261,0 101.6378636858932,2.703122737847959,0 101.6378631352915,2.703084986446687,0 101.6378689815206,2.703059800016407,0 101.6378684288078,2.703022109398427,0 101.6378742686315,2.702996963471563,0 101.6378738986939,2.702971872749292,0 101.6378736213978,2.702953065324679,0 101.6378730672081,2.702915477687149,0 101.6378726057929,2.702884182324394,0 101.6378722369286,2.702859164137537,0 101.6378532831775,2.702834278869183,0 101.6378344306932,2.702815654642601,0 101.6378093952332,2.702797078326221,0 101.6377904768652,2.702772232980892,0 101.6377655495484,2.70275991358097,0 101.6377405487421,2.702741364093122,0 101.637709531827,2.702735325577192,0 101.6376723333022,2.702729326939521,0 101.6376289546583,2.702723368171744,0 101.6376165824749,2.702723445981646,0 101.6375793288526,2.702711220129206,0 101.6375545884603,2.702711375726719,0 101.6375174143135,2.702705380956457,0 101.637498860512,2.702705497647017,0 101.637461752914,2.702705731029587,0 101.6374246453222,2.702705964414084,0 101.6373937223335,2.702706158902639,0 101.6373689839454,2.702706314494448,0 101.6373380609637,2.702706508985419,0 101.6373133225809,2.702706664579163,0 101.6372885842003,2.702706820173766,0 101.6372639323045,2.702719433365737,0 101.637251730213,2.702744438393843,0 101.6372518570944,2.702763144290187,0 101.6372458771571,2.70279437975662,0 101.6372398510452,2.702819393968923,0 101.6372338619657,2.702850674596471,0 101.6372340256442,2.702875686000584,0 101.6372279894282,2.702900752478399,0 101.6372282323108,2.702938323916778,0 101.6372222694437,2.702975970629368,0 101.6372163799893,2.703026209854002,0 101.6372103655472,2.703057656866875,0 101.6372106004003,2.703095379796749,0 101.6372045782974,2.703126882563264,0 101.6372048492914,2.70317097434702,0 101.6372050430458,2.703202498961732,0 101.6371990104382,2.703234088178548,0 101.6371930107864,2.703272021054582,0 101.6371933136171,2.703322603183043,0 101.6371935030851,2.703354250241462,0 101.6371873792463,2.703373289976696,0 101.6371875664372,2.703404978062194,0 101.6371877162988,2.703430346972999,0 101.6371878662569,2.703455732215768,0 101.6371880538419,2.703487487038405,0 101.6371882791441,2.703525626708273,0 101.637188467063,2.703557438070819,0 101.6371886551348,2.703589275323169,0 101.6371888810218,2.703627514041696,0 101.6371890694293,2.703659408152035,0 101.6371892579893,2.703691328061417,0 101.6371894467028,2.703723273993951,0 101.6371896355691,2.70375524578893,0 101.637189786773,2.703780841994423,0 101.6371899380751,2.703806454850262,0 101.6371901652127,2.70384490534091,0 101.6371903546632,2.70387697606994,0 101.6371841891828,2.703896270542839,0 101.6371844512229,2.703941235499654,0 101.6371846010943,2.70396695280414,0 101.6371848260844,2.704005560160234,0 101.6371787602926,2.704044244957611,0 101.6371789085019,2.704070029354556,0 101.6371727982772,2.70410232325948,0 101.6371666830632,2.704134643437186,0 101.6371668636195,2.704166950399193,0 101.6371607409843,2.704199323495772,0 101.6371609192599,2.704231683409999,0 101.6371420356381,2.704238277450609,0 101.6371105034833,2.704238475722012,0 101.6370852777611,2.704238634342436,0 101.6370789713309,2.704238673998005,0 101.6370474391804,2.70423887227858,0 101.6369969877436,2.704239189537053,0 101.6369465000256,2.704226557488727,0 101.6368897514462,2.704226914374039,0 101.6368140793623,2.704220916910252,0 101.6367447240164,2.704214880996186,0 101.6366879877087,2.704208766789006,0 101.636593429936,2.704209361573118,0 101.6364988905986,2.704203486076695,0 101.6363854305144,2.70420419986208,0 101.6362846130332,2.704198365207751,0 101.6362152819469,2.704198801434832,0 101.6361523004333,2.704192729638098,0 101.6360955796086,2.704193086554253,0 101.6360514634026,2.704193364165814,0 101.6360137075832,2.704187134919555,0 101.6359758967682,2.704187372866148,0 101.6359318489763,2.704181184286136,0 101.6358940412345,2.70418142222702,0 101.635849932119,2.704181699833355,0 101.63580582314,2.704181977447574,0 101.6357680153714,2.704182215410029,0 101.635730207594,2.70418245337896,0 101.6356797118581,2.704189237005196,0 101.6356419009703,2.704189475009154,0 101.6356103918158,2.704189673351213,0 101.6355788828017,2.704189871696863,0 101.6355535798631,2.70419649782443,0 101.6355031611788,2.704196815220033,0 101.6354589413339,2.704203561700521,0 101.6354211242044,2.704203799782495,0 101.6353516806674,2.704210705951238,0 101.6353074411588,2.704217454704305,0 101.6352568900683,2.704224244071286,0 101.6351938459456,2.704224641037308,0 101.6351497151105,2.704224918924018,0 101.6351054517808,2.704231669793755,0 101.635061317299,2.70423194772213,0 101.6350108777818,2.704232265366195,0 101.6349541332181,2.704232622730392,0 101.6349036936411,2.704232940399632,0 101.6348532540346,2.704233258080729,0 101.6348028143979,2.70423357577369,0 101.6347460698433,2.704233933191983,0 101.6346893252482,2.704234290625307,0 101.6346325803166,2.704234648075516,0 101.6345758356373,2.704235005538913,0 101.63452539582,2.704235323297192,0 101.6344812608771,2.704235601345913,0 101.6344245160783,2.704235958849452,0 101.6343740761523,2.704236276643429,0 101.634317331264,2.704236634175432,0 101.6342479761698,2.704237071180496,0 101.6341912311709,2.704237428746015,0 101.6341346978047,2.704231312827828,0 101.6340844775438,2.704225158194416,0 101.6340466534357,2.704225396558506,0 101.6340027478167,2.704219203007449,0 101.6339649270417,2.704219441363334,0 101.6339208025267,2.704219719455172,0 101.6338955885448,2.704219878368596,0 101.6338577676982,2.704220116743363,0 101.6338136430985,2.704220394857228,0 101.6337758219003,2.7042206332483,0 101.6337380009704,2.704220871644184,0 101.6337001797185,2.704221110048602,0 101.6336431962802,2.704227939514828,0 101.6335927639215,2.704228257437914,0 101.6335486354925,2.704228535630853,0 101.6335171152887,2.704228734344881,0 101.6334729867925,2.70422901255347,0 101.6334477705332,2.704229171533634,0 101.6334225542607,2.704229330516785,0 101.6333915787446,2.704216586523367,0 
					</coordinates>
				</LinearRing>
			</outerBoundaryIs>
		</Polygon>
		<atom:link rel="app" href="https://www.google.com/earth/about/versions/#earth-pro" title="Google Earth Pro 7.3.7.1155"></atom:link>
	</Placemark>
</Document>
</kml>
