<?xml version="1.0" encoding="UTF-8"?>
<kml xmlns="http://www.opengis.net/kml/2.2" xmlns:gx="http://www.google.com/kml/ext/2.2" xmlns:kml="http://www.opengis.net/kml/2.2" xmlns:atom="http://www.w3.org/2005/Atom">
<Document>
	<name>map2_border.kml</name>
	<StyleMap id="m_ylw-pushpin">
		<Pair>
			<key>normal</key>
			<styleUrl>#s_ylw-pushpin</styleUrl>
		</Pair>
		<Pair>
			<key>highlight</key>
			<styleUrl>#s_ylw-pushpin_hl</styleUrl>
		</Pair>
	</StyleMap>
	<Style id="s_ylw-pushpin">
		<IconStyle>
			<scale>1.1</scale>
			<Icon>
				<href>http://maps.google.com/mapfiles/kml/pushpin/ylw-pushpin.png</href>
			</Icon>
			<hotSpot x="20" y="2" xunits="pixels" yunits="pixels"/>
		</IconStyle>
	</Style>
	<Style id="s_ylw-pushpin_hl">
		<IconStyle>
			<scale>1.3</scale>
			<Icon>
				<href>http://maps.google.com/mapfiles/kml/pushpin/ylw-pushpin.png</href>
			</Icon>
			<hotSpot x="20" y="2" xunits="pixels" yunits="pixels"/>
		</IconStyle>
	</Style>
	<Placemark>
		<name>Untitled Polygon</name>
		<snippet></snippet>
		<styleUrl>#m_ylw-pushpin</styleUrl>
		<MultiGeometry>
			<Polygon>
				<tessellate>1</tessellate>
				<outerBoundaryIs>
					<LinearRing>
						<coordinates>
							101.6221892396735,2.679439140792594,0 101.6221283579758,2.676331161215218,0 101.6269476695554,2.676366957918632,0 101.6269453725887,2.679368812529177,0 101.6221892396735,2.679439140792594,0 
						</coordinates>
					</LinearRing>
				</outerBoundaryIs>
			</Polygon>
			<Polygon>
				<tessellate>1</tessellate>
				<outerBoundaryIs>
					<LinearRing>
						<coordinates>
							101.6270299712968,2.679399804862735,0 101.6270012999623,2.67757130695731,0 101.6280961855426,2.677565510967924,0 101.6281017260258,2.675890816627811,0 101.6270296423339,2.675839637821769,0 101.6297299551678,2.67590144811951,0 101.6296313697894,2.677575342777611,0 101.6301631486022,2.6775911359246,0 101.6301330660019,2.675916210247106,0 101.6318056176173,2.675896309269119,0 101.6317897785206,2.67940892986002,0 101.6291527038267,2.679392162315433,0 101.629166777093,2.67761237777158,0 101.6284210903168,2.677601879338459,0 101.6283747198783,2.679392245459178,0 101.6270299712968,2.679399804862735,0 
						</coordinates>
					</LinearRing>
				</outerBoundaryIs>
			</Polygon>
		</MultiGeometry>
		<atom:link rel="app" href="https://www.google.com/earth/about/versions/#earth-pro" title="Google Earth Pro 7.3.7.1155"></atom:link>
	</Placemark>
</Document>
</kml>
